{"type": "FeatureCollection", "features": [ {"type": "Feature", "properties": {"norad_id": 43207, "name": "BEIDOU-3 M4 (C22)", "group": "beidou", "lat": -21.057622095241094, "lon": -95.60839646255715, "alt_km": 21542.18585891861, "timestamp": "2025-12-02T23:34:15.781625+00:00", "meta": {"OBJECT_NAME": "BEIDOU-3 M4 (C22)", "OBJECT_ID": "2018-018A", "EPOCH": "2025-12-02T03:19:43.852800", "MEAN_MOTION": 1.86230706, "ECCENTRICITY": 0.00040749, "INCLINATION": 56.4768, "RA_OF_ASC_NODE": 69.6557, "ARG_OF_PERICENTER": 15.1369, "MEAN_ANOMALY": 344.8773, "EPHEMERIS_TYPE": 0, "CLASSIFICATION_TYPE": "U", "NORAD_CAT_ID": 43207, "ELEMENT_SET_NO": 999, "REV_AT_EPOCH": 5307, "BSTAR": 0, "MEAN_MOTION_DOT": -4.5e-07, "MEAN_MOTION_DDOT": 0}, "tle": {"line1": "1 43207U 18018A   25336.13870200 -.00000045  00000+0  00000+0 0  9992", "line2": "2 43207  56.4768  69.6557 0004074  15.1369 344.8773  1.86230706 53076"}}, "geometry": {"type": "Point", "coordinates": [-95.60839646255715, -21.057622095241094]}}, {"type": "Feature", "properties": {"norad_id": 43208, "name": "BEIDOU-3 M3 (C21)", "group": "beidou", "lat": 15.881935868801513, "lon": -121.22363264912376, "alt_km": 21542.271967711382, "timestamp": "2025-12-02T23:34:15.781637+00:00", "meta": {"OBJECT_NAME": "BEIDOU-3 M3 (C21)", "OBJECT_ID": "2018-018B", "EPOCH": "2025-12-02T04:55:31.813248", "MEAN_MOTION": 1.86230891, "ECCENTRICITY": 0.0006234, "INCLINATION": 56.4762, "RA_OF_ASC_NODE": 69.6575, "ARG_OF_PERICENTER": 317.6404, "MEAN_ANOMALY": 42.3135, "EPHEMERIS_TYPE": 0, "CLASSIFICATION_TYPE": "U", "NORAD_CAT_ID": 43208, "ELEMENT_SET_NO": 999, "REV_AT_EPOCH": 5307, "BSTAR": 0, "MEAN_MOTION_DOT": -4.5e-07, "MEAN_MOTION_DDOT": 0}, "tle": {"line1": "1 43208U 18018B   25336.20522932 -.00000045  00000+0  00000+0 0  9997", "line2": "2 43208  56.4762  69.6575 0006234 317.6404  42.3135  1.86230891 53078"}}, "geometry": {"type": "Point", "coordinates": [-121.22363264912376, 15.881935868801513]}}, {"type": "Feature", "properties": {"norad_id": 43245, "name": "BEIDOU-3 M9 (C29)", "group": "beidou", "lat": 12.943620932502382, "lon": -43.729541811946056, "alt_km": 21528.10010566196, "timestamp": "2025-12-02T23:34:15.781648+00:00", "meta": {"OBJECT_NAME": "BEIDOU-3 M9 (C29)", "OBJECT_ID": "2018-029A", "EPOCH": "2025-12-01T08:20:14.784576", "MEAN_MOTION": 1.86227904, "ECCENTRICITY": 0.00017985, "INCLINATION": 54.3765, "RA_OF_ASC_NODE": 306.8658, "ARG_OF_PERICENTER": 272.1738, "MEAN_ANOMALY": 87.7976, "EPHEMERIS_TYPE": 0, "CLASSIFICATION_TYPE": "U", "NORAD_CAT_ID": 43245, "ELEMENT_SET_NO": 999, "REV_AT_EPOCH": 5221, "BSTAR": 0, "MEAN_MOTION_DOT": -5.8e-07, "MEAN_MOTION_DDOT": 0}, "tle": {"line1": "1 43245U 18029A   25335.34739334 -.00000058  00000+0  00000+0 0  9994", "line2": "2 43245  54.3765 306.8658 0001798 272.1738  87.7976  1.86227904 52214"}}, "geometry": {"type": "Point", "coordinates": [-43.729541811946056, 12.943620932502382]}}, {"type": "Feature", "properties": {"norad_id": 43246, "name": "BEIDOU-3 M10 (C30)", "group": "beidou", "lat": 44.40547440101958, "lon": -8.586768609421236, "alt_km": 21517.56644850044, "timestamp": "2025-12-02T23:34:15.781659+00:00", "meta": {"OBJECT_NAME": "BEIDOU-3 M10 (C30)", "OBJECT_ID": "2018-029B", "EPOCH": "2025-11-29T03:14:13.986240", "MEAN_MOTION": 1.86228967, "ECCENTRICITY": 0.00039142, "INCLINATION": 54.3758, "RA_OF_ASC_NODE": 306.9698, "ARG_OF_PERICENTER": 358.6776, "MEAN_ANOMALY": 1.3207, "EPHEMERIS_TYPE": 0, "CLASSIFICATION_TYPE": "U", "NORAD_CAT_ID": 43246, "ELEMENT_SET_NO": 999, "REV_AT_EPOCH": 5215, "BSTAR": 0, "MEAN_MOTION_DOT": -4.6e-07, "MEAN_MOTION_DDOT": 0}, "tle": {"line1": "1 43246U 18029B   25333.13488410 -.00000046  00000+0  00000+0 0  9993", "line2": "2 43246  54.3758 306.9698 0003914 358.6776   1.3207  1.86228967 52158"}}, "geometry": {"type": "Point", "coordinates": [-8.586768609421236, 44.40547440101958]}}, {"type": "Feature", "properties": {"norad_id": 43539, "name": "BEIDOU-2 IGSO-7 (C16)", "group": "beidou", "lat": 10.605463993818338, "lon": 172.2572752931301, "alt_km": 36076.13683494579, "timestamp": "2025-12-02T23:34:15.781670+00:00", "meta": {"OBJECT_NAME": "BEIDOU-2 IGSO-7 (C16)", "OBJECT_ID": "2018-057A", "EPOCH": "2025-12-01T22:54:18.573696", "MEAN_MOTION": 1.00259974, "ECCENTRICITY": 0.00924716, "INCLINATION": 55.1727, "RA_OF_ASC_NODE": 164.7667, "ARG_OF_PERICENTER": 235.1548, "MEAN_ANOMALY": 126.2091, "EPHEMERIS_TYPE": 0, "CLASSIFICATION_TYPE": "U", "NORAD_CAT_ID": 43539, "ELEMENT_SET_NO": 999, "REV_AT_EPOCH": 2715, "BSTAR": 0, "MEAN_MOTION_DOT": -1.8e-07, "MEAN_MOTION_DDOT": 0}, "tle": {"line1": "1 43539U 18057A   25335.95438164 -.00000018  00000+0  00000+0 0  9991", "line2": "2 43539  55.1727 164.7667 0092471 235.1548 126.2091  1.00259974 27154"}}, "geometry": {"type": "Point", "coordinates": [172.2572752931301, 10.605463993818338]}}, {"type": "Feature", "properties": {"norad_id": 43581, "name": "BEIDOU-3 M5 (C23)", "group": "beidou", "lat": -54.05168757709392, "lon": 96.71798241569729, "alt_km": 21533.189442431725, "timestamp": "2025-12-02T23:34:15.781681+00:00", "meta": {"OBJECT_NAME": "BEIDOU-3 M5 (C23)", "OBJECT_ID": "2018-062A", "EPOCH": "2025-11-30T23:17:32.661024", "MEAN_MOTION": 1.8622853, "ECCENTRICITY": 0.0002124, "INCLINATION": 54.0891, "RA_OF_ASC_NODE": 189.0442, "ARG_OF_PERICENTER": 349.7703, "MEAN_ANOMALY": 10.3183, "EPHEMERIS_TYPE": 0, "CLASSIFICATION_TYPE": "U", "NORAD_CAT_ID": 43581, "ELEMENT_SET_NO": 999, "REV_AT_EPOCH": 4994, "BSTAR": 0, "MEAN_MOTION_DOT": 1.17e-06, "MEAN_MOTION_DDOT": 0}, "tle": {"line1": "1 43581U 18062A   25334.97051691  .00000117  00000+0  00000+0 0  9990", "line2": "2 43581  54.0891 189.0442 0002124 349.7703  10.3183  1.86228530 49947"}}, "geometry": {"type": "Point", "coordinates": [96.71798241569729, -54.05168757709392]}}, {"type": "Feature", "properties": {"norad_id": 43582, "name": "BEIDOU-3 M6 (C24)", "group": "beidou", "lat": 0.35649039895253004, "lon": -170.7677660923281, "alt_km": 21513.27075120856, "timestamp": "2025-12-02T23:34:15.781692+00:00", "meta": {"OBJECT_NAME": "BEIDOU-3 M6 (C24)", "OBJECT_ID": "2018-062B", "EPOCH": "2025-11-29T18:14:01.707936", "MEAN_MOTION": 1.86229617, "ECCENTRICITY": 0.00076529, "INCLINATION": 54.0888, "RA_OF_ASC_NODE": 189.0746, "ARG_OF_PERICENTER": 45.4041, "MEAN_ANOMALY": 314.7474, "EPHEMERIS_TYPE": 0, "CLASSIFICATION_TYPE": "U", "NORAD_CAT_ID": 43582, "ELEMENT_SET_NO": 999, "REV_AT_EPOCH": 4992, "BSTAR": 0, "MEAN_MOTION_DOT": 1.07e-06, "MEAN_MOTION_DDOT": 0}, "tle": {"line1": "1 43582U 18062B   25333.75974199  .00000107  00000+0  00000+0 0  9992", "line2": "2 43582  54.0888 189.0746 0007652  45.4041 314.7474  1.86229617 49926"}}, "geometry": {"type": "Point", "coordinates": [-170.7677660923281, 0.35649039895253004]}}, {"type": "Feature", "properties": {"norad_id": 43602, "name": "BEIDOU-3 M12 (C26)", "group": "beidou", "lat": 33.045648428597076, "lon": -144.27713978198722, "alt_km": 21498.78901394118, "timestamp": "2025-12-02T23:34:15.781703+00:00", "meta": {"OBJECT_NAME": "BEIDOU-3 M12 (C26)", "OBJECT_ID": "2018-067A", "EPOCH": "2025-12-01T20:17:11.919840", "MEAN_MOTION": 1.86227624, "ECCENTRICITY": 0.00091432, "INCLINATION": 54.1831, "RA_OF_ASC_NODE": 187.7331, "ARG_OF_PERICENTER": 40.4315, "MEAN_ANOMALY": 319.7307, "EPHEMERIS_TYPE": 0, "CLASSIFICATION_TYPE": "U", "NORAD_CAT_ID": 43602, "ELEMENT_SET_NO": 999, "REV_AT_EPOCH": 4944, "BSTAR": 0, "MEAN_MOTION_DOT": 1.22e-06, "MEAN_MOTION_DDOT": 0}, "tle": {"line1": "1 43602U 18067A   25335.84527685  .00000122  00000+0  00000+0 0  9993", "line2": "2 43602  54.1831 187.7331 0009143  40.4315 319.7307  1.86227624 49442"}}, "geometry": {"type": "Point", "coordinates": [-144.27713978198722, 33.045648428597076]}}, {"type": "Feature", "properties": {"norad_id": 43603, "name": "BEIDOU-3 M11 (C25)", "group": "beidou", "lat": -37.03884463716938, "lon": 154.6436849255643, "alt_km": 21531.292082975684, "timestamp": "2025-12-02T23:34:15.781714+00:00", "meta": {"OBJECT_NAME": "BEIDOU-3 M11 (C25)", "OBJECT_ID": "2018-067B", "EPOCH": "2025-12-01T23:30:51.046272", "MEAN_MOTION": 1.86227122, "ECCENTRICITY": 0.0005564, "INCLINATION": 54.1806, "RA_OF_ASC_NODE": 187.6926, "ARG_OF_PERICENTER": 35.9792, "MEAN_ANOMALY": 324.1526, "EPHEMERIS_TYPE": 0, "CLASSIFICATION_TYPE": "U", "NORAD_CAT_ID": 43603, "ELEMENT_SET_NO": 999, "REV_AT_EPOCH": 4947, "BSTAR": 0, "MEAN_MOTION_DOT": 1.23e-06, "MEAN_MOTION_DDOT": 0}, "tle": {"line1": "1 43603U 18067B   25335.97975748  .00000123  00000+0  00000+0 0  9996", "line2": "2 43603  54.1806 187.6926 0005564  35.9792 324.1526  1.86227122 49474"}}, "geometry": {"type": "Point", "coordinates": [154.6436849255643, -37.03884463716938]}}, {"type": "Feature", "properties": {"norad_id": 43622, "name": "BEIDOU-3 M13 (C32)", "group": "beidou", "lat": -15.606341289191114, "lon": 58.478289610940756, "alt_km": 21518.840853782167, "timestamp": "2025-12-02T23:34:15.781725+00:00", "meta": {"OBJECT_NAME": "BEIDOU-3 M13 (C32)", "OBJECT_ID": "2018-072A", "EPOCH": "2025-12-01T22:28:14.583360", "MEAN_MOTION": 1.8623073, "ECCENTRICITY": 0.00055911, "INCLINATION": 56.4497, "RA_OF_ASC_NODE": 69.1783, "ARG_OF_PERICENTER": 298.7186, "MEAN_ANOMALY": 61.2282, "EPHEMERIS_TYPE": 0, "CLASSIFICATION_TYPE": "U", "NORAD_CAT_ID": 43622, "ELEMENT_SET_NO": 999, "REV_AT_EPOCH": 4898, "BSTAR": 0, "MEAN_MOTION_DOT": -4.4e-07, "MEAN_MOTION_DDOT": 0}, "tle": {"line1": "1 43622U 18072A   25335.93627990 -.00000044  00000+0  00000+0 0  9995", "line2": "2 43622  56.4497  69.1783 0005591 298.7186  61.2282  1.86230730 48989"}}, "geometry": {"type": "Point", "coordinates": [58.478289610940756, -15.606341289191114]}}]}